{
  "norad_id": 51799,
  "name": "STARLINK-3637",
  "history": [
    {
      "epoch": "2026-03-28T21:35:13.959168Z",
      "apogee_km": 540.57929890595,
      "perigee_km": 538.9226030994441,
      "latitude_deg": 5.589936159066817e-05,
      "longitude_deg": 112.76088718955148,
      "height_km": 540.6628418355342,
      "semi_major_axis_km": 6917.887951002697,
      "eccentricity": 0.00011974,
      "inclination_deg": 53.2163,
      "raan_deg": 262.8823,
      "arg_perigee_deg": 91.1128,
      "mean_anomaly_deg": 269.0002,
      "mean_motion_rev_day": 15.08837526
    },
    {
      "epoch": "2026-03-28T23:10:36.993216Z",
      "apogee_km": 540.5731356944498,
      "perigee_km": 538.919761550228,
      "latitude_deg": -3.3849977955819006e-06,
      "longitude_deg": 88.5521799225941,
      "height_km": 540.6544030064308,
      "semi_major_axis_km": 6917.883448622339,
      "eccentricity": 0.0001195,
      "inclination_deg": 53.2163,
      "raan_deg": 262.5849,
      "arg_perigee_deg": 90.8413,
      "mean_anomaly_deg": 269.2716,
      "mean_motion_rev_day": 15.08838999
    },
    {
      "epoch": "2026-03-30T03:47:33.842112Z",
      "apogee_km": 540.5649666278223,
      "perigee_km": 538.9406461012886,
      "latitude_deg": -5.2054187674518335e-05,
      "longitude_deg": 12.787365220025666,
      "height_km": 540.647739034707,
      "semi_major_axis_km": 6917.889806364556,
      "eccentricity": 0.0001174,
      "inclination_deg": 53.2163,
      "raan_deg": 257.2322,
      "arg_perigee_deg": 89.9352,
      "mean_anomaly_deg": 270.1774,
      "mean_motion_rev_day": 15.08836919
    },
    {
      "epoch": "2026-03-30T14:55:15.928032Z",
      "apogee_km": 540.5864261763809,
      "perigee_km": 538.9340172460024,
      "latitude_deg": 3.2314003748738775e-06,
      "longitude_deg": -156.6764765269459,
      "height_km": 540.6681340454008,
      "semi_major_axis_km": 6917.897221711191,
      "eccentricity": 0.00011943,
      "inclination_deg": 53.2163,
      "raan_deg": 255.1507,
      "arg_perigee_deg": 90.839,
      "mean_anomaly_deg": 269.2739,
      "mean_motion_rev_day": 15.08834493
    },
    {
      "epoch": "2026-03-30T21:16:48.234432Z",
      "apogee_km": 540.5749039726425,
      "perigee_km": 538.9231895001249,
      "latitude_deg": 6.939331060190145e-06,
      "longitude_deg": 106.48836275381908,
      "height_km": 540.6506671303841,
      "semi_major_axis_km": 6917.886046736384,
      "eccentricity": 0.00011938,
      "inclination_deg": 53.2163,
      "raan_deg": 253.9613,
      "arg_perigee_deg": 90.4027,
      "mean_anomaly_deg": 269.7102,
      "mean_motion_rev_day": 15.08838149
    },
    {
      "epoch": "2026-03-31T21:07:35.779008Z",
      "apogee_km": 540.5736640380501,
      "perigee_km": 538.9534917227111,
      "latitude_deg": 5.6207788459374944e-05,
      "longitude_deg": 103.35055574912619,
      "height_km": 540.6607752553036,
      "semi_major_axis_km": 6917.90057788038,
      "eccentricity": 0.0001171,
      "inclination_deg": 53.2164,
      "raan_deg": 249.5009,
      "arg_perigee_deg": 90.0954,
      "mean_anomaly_deg": 270.0173,
      "mean_motion_rev_day": 15.08833395
    },
    {
      "epoch": "2026-04-01T09:50:40.831584Z",
      "apogee_km": 540.58353428799,
      "perigee_km": 538.927390832453,
      "latitude_deg": 1.4692050999821363e-05,
      "longitude_deg": -90.32193942788066,
      "height_km": 540.5844179786877,
      "semi_major_axis_km": 6917.892462560221,
      "eccentricity": 0.0001197,
      "inclination_deg": 53.2164,
      "raan_deg": 247.1218,
      "arg_perigee_deg": 85.368,
      "mean_anomaly_deg": 274.7449,
      "mean_motion_rev_day": 15.0883605
    },
    {
      "epoch": "2026-04-02T19:13:46.543296Z",
      "apogee_km": 540.6662892341301,
      "perigee_km": 538.820598731676,
      "latitude_deg": -3.649846257509942e-05,
      "longitude_deg": 121.28875505242192,
      "height_km": 540.5649459460404,
      "semi_major_axis_km": 6917.880443982903,
      "eccentricity": 0.0001334,
      "inclination_deg": 53.2149,
      "raan_deg": 240.8774,
      "arg_perigee_deg": 85.4015,
      "mean_anomaly_deg": 274.7129,
      "mean_motion_rev_day": 15.08839982
    },
    {
      "epoch": "2026-04-02T19:13:46.544160Z",
      "apogee_km": 540.6661508765219,
      "perigee_km": 538.8207370892851,
      "latitude_deg": -3.4657900131307216e-05,
      "longitude_deg": 121.28875281118661,
      "height_km": 540.5649570382627,
      "semi_major_axis_km": 6917.880443982903,
      "eccentricity": 0.00013338,
      "inclination_deg": 53.2149,
      "raan_deg": 240.8774,
      "arg_perigee_deg": 85.4015,
      "mean_anomaly_deg": 274.7129,
      "mean_motion_rev_day": 15.08839982
    },
    {
      "epoch": "2026-04-03T19:04:34.059360Z",
      "apogee_km": 540.7954549651013,
      "perigee_km": 538.7193948481863,
      "latitude_deg": 3.111873892263127e-05,
      "longitude_deg": 118.15027952900283,
      "height_km": 540.7305951289151,
      "semi_major_axis_km": 6917.8944249066435,
      "eccentricity": 0.00015005,
      "inclination_deg": 53.2175,
      "raan_deg": 236.4162,
      "arg_perigee_deg": 94.2901,
      "mean_anomaly_deg": 265.8263,
      "mean_motion_rev_day": 15.08835408
    },
    {
      "epoch": "2026-04-05T13:59:59.097696Z",
      "apogee_km": 540.6593575903507,
      "perigee_km": 538.93374824491,
      "latitude_deg": -3.686981225483077e-05,
      "longitude_deg": -175.49340994034768,
      "height_km": 540.6164626650724,
      "semi_major_axis_km": 6917.93355291763,
      "eccentricity": 0.00012472,
      "inclination_deg": 53.2165,
      "raan_deg": 228.3897,
      "arg_perigee_deg": 84.9557,
      "mean_anomaly_deg": 275.1577,
      "mean_motion_rev_day": 15.08822607
    },
    {
      "epoch": "2026-04-05T15:35:22.078176Z",
      "apogee_km": 540.6701318593887,
      "perigee_km": 538.9088277776264,
      "latitude_deg": 9.087311170014024e-06,
      "longitude_deg": 160.29618476275664,
      "height_km": 540.7227405777998,
      "semi_major_axis_km": 6917.926479818508,
      "eccentricity": 0.0001273,
      "inclination_deg": 53.2181,
      "raan_deg": 228.0903,
      "arg_perigee_deg": 92.4318,
      "mean_anomaly_deg": 267.682,
      "mean_motion_rev_day": 15.08824921
    },
    {
      "epoch": "2026-04-07T12:06:09.882720Z",
      "apogee_km": 540.5910257327832,
      "perigee_km": 538.9608887235408,
      "latitude_deg": -7.923304924399676e-06,
      "longitude_deg": -157.5571134839287,
      "height_km": 540.694700407108,
      "semi_major_axis_km": 6917.912957228162,
      "eccentricity": 0.00011782,
      "inclination_deg": 53.2179,
      "raan_deg": 219.7643,
      "arg_perigee_deg": 91.5985,
      "mean_anomaly_deg": 268.5142,
      "mean_motion_rev_day": 15.08829345
    },
    {
      "epoch": "2026-04-07T18:27:42.257376Z",
      "apogee_km": 540.5983758896946,
      "perigee_km": 538.9283947366794,
      "latitude_deg": -3.258850385766523e-05,
      "longitude_deg": 105.60741843927075,
      "height_km": 540.6814279641972,
      "semi_major_axis_km": 6917.900385313186,
      "eccentricity": 0.0001207,
      "inclination_deg": 53.2179,
      "raan_deg": 218.5749,
      "arg_perigee_deg": 91.5146,
      "mean_anomaly_deg": 268.5984,
      "mean_motion_rev_day": 15.08833458
    },
    {
      "epoch": "2026-04-08T13:32:20.773248Z",
      "apogee_km": 540.6518973692273,
      "perigee_km": 538.9026335680619,
      "latitude_deg": -2.9041578679977843e-05,
      "longitude_deg": 175.09585629571893,
      "height_km": 540.7574278865701,
      "semi_major_axis_km": 6917.914265468645,
      "eccentricity": 0.00012643,
      "inclination_deg": 53.218,
      "raan_deg": 215.0073,
      "arg_perigee_deg": 95.5279,
      "mean_anomaly_deg": 264.5857,
      "mean_motion_rev_day": 15.08828917
    },
    {
      "epoch": "2026-04-09T11:47:44.146752Z",
      "apogee_km": 540.5883236100826,
      "perigee_km": 538.9197282946234,
      "latitude_deg": 1.2350224778028849e-05,
      "longitude_deg": -163.82834697857453,
      "height_km": 540.77361305283,
      "semi_major_axis_km": 6917.891025952353,
      "eccentricity": 0.0001206,
      "inclination_deg": 53.2183,
      "raan_deg": 210.8445,
      "arg_perigee_deg": 98.5169,
      "mean_anomaly_deg": 261.596,
      "mean_motion_rev_day": 15.0883652
    },
    {
      "epoch": "2026-04-10T13:13:54.181056Z",
      "apogee_km": 540.6876925669831,
      "perigee_km": 538.8074115457339,
      "latitude_deg": 2.79514091907533e-05,
      "longitude_deg": 168.82532787287028,
      "height_km": 540.5986347245379,
      "semi_major_axis_km": 6917.884552056358,
      "eccentricity": 0.0001359,
      "inclination_deg": 53.2157,
      "raan_deg": 206.0846,
      "arg_perigee_deg": 87.2905,
      "mean_anomaly_deg": 272.8243,
      "mean_motion_rev_day": 15.08838638
    },
    {
      "epoch": "2026-04-11T17:50:50.940096Z",
      "apogee_km": 540.4880396141698,
      "perigee_km": 539.0048454040962,
      "latitude_deg": 3.4051485510752757e-06,
      "longitude_deg": 93.06220362643371,
      "height_km": 540.6367821476887,
      "semi_major_axis_km": 6917.883442509133,
      "eccentricity": 0.0001072,
      "inclination_deg": 53.2166,
      "raan_deg": 200.7332,
      "arg_perigee_deg": 89.5616,
      "mean_anomaly_deg": 270.5499,
      "mean_motion_rev_day": 15.08839001
    },
    {
      "epoch": "2026-04-13T06:24:43.214976Z",
      "apogee_km": 540.5077424205592,
      "perigee_km": 539.0104329913356,
      "latitude_deg": 8.774104995201396e-07,
      "longitude_deg": -103.74606251496107,
      "height_km": 540.6213482669777,
      "semi_major_axis_km": 6917.896087705947,
      "eccentricity": 0.00010822,
      "inclination_deg": 53.2161,
      "raan_deg": 193.8944,
      "arg_perigee_deg": 87.421,
      "mean_anomaly_deg": 272.6906,
      "mean_motion_rev_day": 15.08834864
    }
  ]
}